{
  "norad_id": 52757,
  "name": "HAWK-5A",
  "history": [
    {
      "epoch": "2026-03-28T22:08:53.735424Z",
      "apogee_km": 424.8058496579997,
      "perigee_km": 418.1748530649511,
      "latitude_deg": 5.7706713160700714e-05,
      "longitude_deg": 83.27396204839003,
      "height_km": 421.32845652623837,
      "semi_major_axis_km": 6799.627351361475,
      "eccentricity": 0.0004876,
      "inclination_deg": 97.6482,
      "raan_deg": 241.8342,
      "arg_perigee_deg": 8.1924,
      "mean_anomaly_deg": 351.9405,
      "mean_motion_rev_day": 15.48371232
    },
    {
      "epoch": "2026-03-29T04:21:08.396352Z",
      "apogee_km": 424.77576579888773,
      "perigee_km": 418.1148949480539,
      "latitude_deg": -4.1550408428133545e-05,
      "longitude_deg": -9.768104038152648,
      "height_km": 421.26202058000916,
      "semi_major_axis_km": 6799.5823303734705,
      "eccentricity": 0.0004898,
      "inclination_deg": 97.6482,
      "raan_deg": 242.108,
      "arg_perigee_deg": 7.33,
      "mean_anomaly_deg": 352.802,
      "mean_motion_rev_day": 15.4838661
    },
    {
      "epoch": "2026-03-30T03:37:01.471872Z",
      "apogee_km": 424.59341399330424,
      "perigee_km": 417.9925273777626,
      "latitude_deg": 4.413853919678824e-05,
      "longitude_deg": 1.331388056461625,
      "height_km": 421.11839668470515,
      "semi_major_axis_km": 6799.429970685533,
      "eccentricity": 0.0004854,
      "inclination_deg": 97.6483,
      "raan_deg": 243.1341,
      "arg_perigee_deg": 3.2678,
      "mean_anomaly_deg": 356.8603,
      "mean_motion_rev_day": 15.48438654
    },
    {
      "epoch": "2026-03-30T05:10:04.909440Z",
      "apogee_km": 424.5838320994508,
      "perigee_km": 417.98078002294915,
      "latitude_deg": -5.4059147669922696e-05,
      "longitude_deg": -21.9281174092668,
      "height_km": 421.10602988840793,
      "semi_major_axis_km": 6799.4193060612,
      "eccentricity": 0.00048556,
      "inclination_deg": 97.6483,
      "raan_deg": 243.2026,
      "arg_perigee_deg": 3.0585,
      "mean_anomaly_deg": 357.0693,
      "mean_motion_rev_day": 15.48442297
    },
    {
      "epoch": "2026-03-30T12:55:21.857952Z",
      "apogee_km": 424.5233293297897,
      "perigee_km": 417.9271320425569,
      "latitude_deg": 3.943938499941422e-05,
      "longitude_deg": -138.22542285928523,
      "height_km": 421.04904879100786,
      "semi_major_axis_km": 6799.3622306861735,
      "eccentricity": 0.00048506,
      "inclination_deg": 97.6483,
      "raan_deg": 243.5444,
      "arg_perigee_deg": 1.5191,
      "mean_anomaly_deg": 358.6073,
      "mean_motion_rev_day": 15.48461794
    },
    {
      "epoch": "2026-03-31T16:50:20.378400Z",
      "apogee_km": 424.2957337583048,
      "perigee_km": 417.80522938839385,
      "latitude_deg": 3.052579608577506e-05,
      "longitude_deg": 163.11536476684967,
      "height_km": 420.9323145123555,
      "semi_major_axis_km": 6799.187481573349,
      "eccentricity": 0.0004773,
      "inclination_deg": 97.6487,
      "raan_deg": 244.7755,
      "arg_perigee_deg": 356.6209,
      "mean_anomaly_deg": 3.5008,
      "mean_motion_rev_day": 15.48521491
    }
  ]
}